{
"type": "FeatureCollection",
"name": "phiringia",
"crs": { "type": "name", "properties": { "name": "urn:ogc:def:crs:OGC:1.3:CRS84" } },
"features": [
{ "type": "Feature", "properties": { "id": 1 }, "geometry": { "type": "MultiPolygon", "coordinates": [ [ [ [ 84.118928404564258, 20.352975862294254 ], [ 84.118763462776798, 20.353058333187992 ], [ 84.118730474419294, 20.353223274975459 ], [ 84.118680991883053, 20.353569652729135 ], [ 84.118680991883053, 20.353916030482814 ], [ 84.118878922028017, 20.354394361666461 ], [ 84.118697486061805, 20.354757233598885 ], [ 84.118466567559352, 20.354922175386353 ], [ 84.11795524801822, 20.355070622995072 ], [ 84.117641858622022, 20.355153093888802 ], [ 84.117394445940832, 20.354988152101338 ], [ 84.117180021617131, 20.354542809275181 ], [ 84.116932608935926, 20.354130454806519 ], [ 84.11647077193102, 20.353916030482814 ], [ 84.116157382534837, 20.353998501376545 ], [ 84.11556359209996, 20.354146948985264 ], [ 84.114722388983893, 20.354278902415235 ], [ 84.114227563621498, 20.354427350023954 ], [ 84.113864691689074, 20.354740739420141 ], [ 84.113699749901599, 20.355054128816324 ], [ 84.113914174225314, 20.355449989106241 ], [ 84.113782220795343, 20.355977802826132 ], [ 84.113716244080351, 20.356126250434848 ], [ 84.113419348862919, 20.356555099082261 ], [ 84.113270901254197, 20.356901476835937 ], [ 84.113237912896707, 20.357379808019587 ], [ 84.113270901254197, 20.357825150845741 ], [ 84.113254407075445, 20.358253999493154 ], [ 84.112891535143021, 20.358336470386885 ], [ 84.112281250529406, 20.358253999493154 ], [ 84.11173694263077, 20.358286987850647 ], [ 84.111192634732134, 20.358484917995604 ], [ 84.110549361761016, 20.358897272464269 ], [ 84.110334937437315, 20.359161179324211 ], [ 84.109196839103802, 20.359425086184157 ], [ 84.10909787403132, 20.359590027971624 ], [ 84.108965920601349, 20.360068359155271 ], [ 84.109444251784993, 20.360546690338921 ], [ 84.110087524756111, 20.361008527343824 ], [ 84.110763786084718, 20.361058009880065 ], [ 84.111374070698346, 20.360909562271345 ], [ 84.112149297099435, 20.360497207802684 ], [ 84.112825558428042, 20.360398242730202 ], [ 84.113402854684168, 20.360711632126389 ], [ 84.113534808114139, 20.361222951667528 ], [ 84.113419348862919, 20.361717777029927 ], [ 84.113072971109233, 20.362163119856081 ], [ 84.11267711081932, 20.362476509252268 ], [ 84.112066826205691, 20.362971334614663 ], [ 84.111753436809508, 20.36336719490458 ], [ 84.111802919345749, 20.363812537730738 ], [ 84.11193487277572, 20.364109432948176 ], [ 84.112512169031859, 20.364158915484413 ], [ 84.113072971109233, 20.36384552608823 ], [ 84.113650267365372, 20.363449665798314 ], [ 84.114112104370264, 20.363268229832101 ], [ 84.114359517051469, 20.363548630870792 ], [ 84.114293540336476, 20.363796043551989 ], [ 84.114359517051469, 20.364010467875694 ], [ 84.114804859877623, 20.364323857271881 ], [ 84.115909969853647, 20.364323857271881 ], [ 84.11701507982967, 20.364191903841903 ], [ 84.117493411013328, 20.364026962054435 ], [ 84.118103695626942, 20.363730066837 ], [ 84.118845933670542, 20.36353213669204 ], [ 84.119637654250383, 20.363400183262069 ], [ 84.120330409757727, 20.363119782223375 ], [ 84.120940694371328, 20.362707427754714 ], [ 84.121864368381139, 20.362723921933462 ], [ 84.122260228671053, 20.362641451039728 ], [ 84.122788042390951, 20.362476509252261 ], [ 84.12285401910593, 20.362410532537275 ], [ 84.122887007463419, 20.36163530613619 ], [ 84.122689077318469, 20.360612667053903 ], [ 84.122672583139718, 20.360249795121479 ], [ 84.122194251956074, 20.359342615290419 ], [ 84.122276722849804, 20.358930260821754 ], [ 84.12285401910593, 20.358682848140557 ], [ 84.123299361932084, 20.358402447101867 ], [ 84.123678728043259, 20.358122046063176 ], [ 84.123909646545712, 20.357594232343285 ], [ 84.123744704758238, 20.357247854589609 ], [ 84.123167408502113, 20.356884982657185 ], [ 84.122722065675958, 20.35619222714983 ], [ 84.122590112245987, 20.355598436714956 ], [ 84.122672583139718, 20.354905681207601 ], [ 84.122590112245987, 20.354311890772724 ], [ 84.122062298526103, 20.353833559589074 ], [ 84.121023165265072, 20.353635629444117 ], [ 84.118928404564258, 20.352975862294254 ] ] ] ] } }
]
}
